[{"OBJECT_NAME":"GCOM-W1 (SHIZUKU)","OBJECT_ID":"2012-025A","EPOCH":"2026-03-09T21:00:27.789696","MEAN_MOTION":14.57098932,"ECCENTRICITY":0.00014794,"INCLINATION":98.2054,"RA_OF_ASC_NODE":10.9333,"ARG_OF_PERICENTER":74.2866,"MEAN_ANOMALY":352.8435,"EPHEMERIS_TYPE":0,"CLASSIFICATION_TYPE":"U","NORAD_CAT_ID":38337,"ELEMENT_SET_NO":999,"REV_AT_EPOCH":73457,"BSTAR":0.00019640051,"MEAN_MOTION_DOT":8.39e-6,"MEAN_MOTION_DDOT":0},{"OBJECT_NAME":"OPTOS","OBJECT_ID":"2013-066E","EPOCH":"2026-03-09T15:19:15.595680","MEAN_MOTION":14.72053406,"ECCENTRICITY":0.01165171,"INCLINATION":97.6953,"RA_OF_ASC_NODE":298.8825,"ARG_OF_PERICENTER":333.077,"MEAN_ANOMALY":26.4421,"EPHEMERIS_TYPE":0,"CLASSIFICATION_TYPE":"U","NORAD_CAT_ID":39420,"ELEMENT_SET_NO":999,"REV_AT_EPOCH":65687,"BSTAR":0.00029036666,"MEAN_MOTION_DOT":1.977e-5,"MEAN_MOTION_DDOT":0}]
